[
    [
        "COSMOS 2433 (720)",
        "1 32275U 07052A   26150.08384005 -.00000066  00000+0  00000+0 0  9996",
        "2 32275  65.5871 316.5417 0001867 185.5599 174.4271  2.13104190144673"
    ],
    [
        "COSMOS 2432 (719)",
        "1 32276U 07052B   26149.68485361 -.00000066  00000+0  00000+0 0  9998",
        "2 32276  65.6037 316.6827 0008035 335.4211  22.4231  2.13103148144687"
    ],
    [
        "COSMOS 2434 (721)",
        "1 32393U 07065A   26150.23632744  .00000084  00000+0  00000+0 0  9993",
        "2 32393  64.3163 192.5214 0001076 351.7628  15.1347  2.13101476143391"
    ],
    [
        "COSMOS 2436 (723)",
        "1 32395U 07065C   26148.18516858  .00000082  00000+0  00000+0 0  9991",
        "2 32395  64.3251 192.6624 0017174 355.1107  10.6114  2.13100275143302"
    ],
    [
        "COSMOS 2456 (730)",
        "1 36111U 09070A   26148.36920458 -.00000063  00000+0  00000+0 0  9994",
        "2 36111  65.0006  71.6472 0005304 325.1780 207.3583  2.13103654128000"
    ],
    [
        "COSMOS 2457 (733)",
        "1 36112U 09070B   26149.66513878 -.00000059  00000+0  00000+0 0  9998",
        "2 36112  64.9870  71.4474 0002077 128.6926  85.6231  2.13101120128036"
    ],
    [
        "COSMOS 2460 (732)",
        "1 36402U 10007C   26147.50482167 -.00000063  00000+0  00000+0 0  9994",
        "2 36402  65.4349 315.1661 0002254  94.4404 264.5388  2.13101719126289"
    ],
    [
        "COSMOS 2476 (744)",
        "1 37867U 11064A   26147.55988468 -.00000060  00000+0  00000+0 0  9991",
        "2 37867  65.2593  73.5669 0023277 240.7101 299.2741  2.13103664113325"
    ],
    [
        "COSMOS 2477 (745)",
        "1 37868U 11064B   26150.13898500 -.00000053  00000+0  00000+0 0  9999",
        "2 37868  65.2673  73.5592 0020270 241.9902 296.9971  2.13102979113374"
    ],
    [
        "COSMOS 2475 (743)",
        "1 37869U 11064C   26150.15612642 -.00000053  00000+0  00000+0 0  9993",
        "2 37869  65.2743  73.5800 0026221 254.5458 252.7869  2.13101777113385"
    ],
    [
        "COSMOS 2485 (747)",
        "1 39155U 13019A   26148.20107962 -.00000060  00000+0  00000+0 0  9990",
        "2 39155  65.4096  74.2745 0023517 235.7009 124.0642  2.13103183101854"
    ],
    [
        "COSMOS 2492 (754)",
        "1 39620U 14012A   26147.22148486 -.00000062  00000+0  00000+0 0  9990",
        "2 39620  65.3097 314.6476 0010712 328.3067  31.6216  2.13103147 94793"
    ],
    [
        "COSMOS 2500 (755)",
        "1 40001U 14032A   26148.33000918 -.00000066  00000+0  00000+0 0  9991",
        "2 40001  65.2446 314.3585 0006729 181.3542 178.6341  2.13105999 93035"
    ],
    [
        "COSMOS 2501 (702K)",
        "1 40315U 14075A   26148.12259804  .00000083  00000+0  00000+0 0  9991",
        "2 40315  63.6151 191.0663 0022522 211.0401 148.9080  2.13101259 89422"
    ],
    [
        "COSMOS 2514 (751)",
        "1 41330U 16008A   26149.51476344 -.00000068  00000+0  00000+0 0  9995",
        "2 41330  65.0333 313.6471 0010569 196.9731 162.9783  2.13102752 80226"
    ],
    [
        "COSMOS 2522 (752)",
        "1 42939U 17055A   26146.53708015  .00000066  00000+0  00000+0 0  9993",
        "2 42939  64.0769 192.6214 0010357 239.2525 120.7217  2.13101796 67519"
    ],
    [
        "COSMOS 2527 (756)",
        "1 43508U 18053A   26149.31416177 -.00000057  00000+0  00000+0 0  9990",
        "2 43508  65.5685  74.5362 0007625 244.8577 115.0526  2.13102115 61879"
    ],
    [
        "COSMOS 2529 (757)",
        "1 43687U 18086A   26145.18750413  .00000047  00000+0  00000+0 0  9997",
        "2 43687  64.2931 193.3710 0011483 256.0033 103.9404  2.13102011 58796"
    ],
    [
        "COSMOS 2534 (758)",
        "1 44299U 19030A   26150.18531547  .00000084  00000+0  00000+0 0  9999",
        "2 44299  64.3672 193.2229 0013122 275.2183  93.4409  2.13102656 54546"
    ],
    [
        "COSMOS 2544 (759)",
        "1 44850U 19088A   26149.72814244 -.00000055  00000+0  00000+0 0  9990",
        "2 44850  65.5566  74.3461 0013834 260.7021  99.1325  2.13101876 50326"
    ],
    [
        "COSMOS 2545 (760)",
        "1 45358U 20018A   26149.92325937 -.00000068  00000+0  00000+0 0  9991",
        "2 45358  64.3665 313.0598 0007713 232.2861 127.6293  2.13102574 48274"
    ],
    [
        "COSMOS 2547 (705K)",
        "1 46805U 20075A   26150.11267714  .00000085  00000+0  00000+0 0  9991",
        "2 46805  64.5979 193.0791 0009114 239.3340 120.6623  2.13100291 43527"
    ],
    [
        "COSMOS 2557 (706K)",
        "1 52984U 22075A   26142.29965628 -.00000040  00000+0  00000+0 0  9999",
        "2 52984  64.3148 315.3974 0010092 278.3503  81.5318  2.13101899 30168"
    ],
    [
        "COSMOS 2559 (707K)",
        "1 54031U 22130A   26148.68886804 -.00000069  00000+0  00000+0 0  9994",
        "2 54031  64.2839 315.2557 0012116 176.5944 183.4043  2.13101722 28273"
    ],
    [
        "COSMOS 2564 (761)",
        "1 54377U 22161A   26149.00149854  .00000085  00000+0  00000+0 0  9992",
        "2 54377  64.7401 193.3486 0011902 223.6107 136.3799  2.13102098 27225"
    ],
    [
        "COSMOS 2569 (703K)",
        "1 57517U 23114A   26149.95233641 -.00000055  00000+0  00000+0 0  9990",
        "2 57517  65.2924  73.2352 0011414 296.6362  63.2403  2.13103838 21877"
    ],
    [
        "COSMOS 2584 (704K)",
        "1 63130U 25042A   26149.36994654 -.00000058  00000+0  00000+0 0  9996",
        "2 63130  65.0743  73.4413 0005957 230.8866 129.0514  2.13103952  9648"
    ],
    [
        "COSMOS 2596 (708K)",
        "1 65590U 25206B   26149.68459361 -.00000068  00000+0  00000+0 0  9997",
        "2 65590  64.6467 315.6290 0011151 314.6394  43.2361  2.13100909  5510"
    ]
]